INTELSAT 19 (IS-19)     
1 38356U 12030A   25333.75361521 -.00000035  00000+0  00000+0 0  9994
2 38356   0.0082 353.4118 0003290 259.7057 253.0993  1.00271351 48453
INTELSAT 20 (IS-20)     
1 38740U 12043A   25333.80564931 -.00000004  00000+0  00000+0 0  9997
2 38740   0.0127 130.0255 0003309  55.2731 242.2012  1.00273987 48741
INTELSAT 21 (IS-21)     
1 38749U 12045A   25333.78051581 -.00000264  00000+0  00000+0 0  9995
2 38749   0.0528  93.0842 0001879 153.9263  44.9113  1.00270652 48522
INTELSAT 23 (IS-23)     
1 38867U 12057A   25333.78155581 -.00000263  00000+0  00000+0 0  9993
2 38867   0.0323  97.3358 0001782 109.4589  90.4977  1.00271673 47959
FM-6                    
1 39360U 13058A   25333.69771485  .00000004  00000+0  00000+0 0  9993
2 39360   0.0051 102.7404 0002904  72.9893  28.1362  1.00273071 44078
INTELSAT 30 (IS-30)     
1 40271U 14062A   25333.55922064 -.00000130  00000+0  00000+0 0  9999
2 40271   0.0126   0.7495 0001354  87.8829  86.3489  1.00270489  4783
DIRECTV 14              
1 40333U 14078B   25333.55835397 -.00000104  00000+0  00000+0 0  9998
2 40333   0.0182 306.7735 0000328 212.5739  11.1475  1.00269749 40044
DIRECTV 15              
1 40663U 15026A   25333.55766061 -.00000081  00000+0  00000+0 0  9993
2 40663   0.0333  90.1710 0000212  97.6139 338.8160  1.00270666 38466
