{
  "type": "FeatureCollection",
  "features": [
    {
      "type": "Feature",
      "properties": {
        "OBJECT_NAME": "INTELSAT 19 (IS-19)",
        "OBJECT_ID": "2012-030A",
        "EPOCH": "2025-11-29T18:05:12.354144",
        "MEAN_MOTION": 1.00271351,
        "ECCENTRICITY": 0.000329,
        "INCLINATION": 0.0082,
        "RA_OF_ASC_NODE": 353.4118,
        "ARG_OF_PERICENTER": 259.7057,
        "MEAN_ANOMALY": 253.0993,
        "EPHEMERIS_TYPE": 0,
        "CLASSIFICATION_TYPE": "U",
        "NORAD_CAT_ID": 38356,
        "ELEMENT_SET_NO": 999,
        "REV_AT_EPOCH": 4845,
        "BSTAR": 0,
        "MEAN_MOTION_DOT": -3.5e-07,
        "MEAN_MOTION_DDOT": 0,
        "norad_id": 38356,
        "name": "INTELSAT 19 (IS-19)",
        "group": "intelsat",
        "longitude_deg": NaN,
        "latitude_deg": NaN,
        "alt_km": NaN,
        "orbit_class": "HEO",
        "timestamp": "2025-11-30T04:58:49.601519+00:00"
      },
      "geometry": {
        "type": "Point",
        "coordinates": [
          NaN,
          NaN
        ]
      }
    },
    {
      "type": "Feature",
      "properties": {
        "OBJECT_NAME": "INTELSAT 20 (IS-20)",
        "OBJECT_ID": "2012-043A",
        "EPOCH": "2025-11-29T19:20:08.100384",
        "MEAN_MOTION": 1.00273987,
        "ECCENTRICITY": 0.0003309,
        "INCLINATION": 0.0127,
        "RA_OF_ASC_NODE": 130.0255,
        "ARG_OF_PERICENTER": 55.2731,
        "MEAN_ANOMALY": 242.2012,
        "EPHEMERIS_TYPE": 0,
        "CLASSIFICATION_TYPE": "U",
        "NORAD_CAT_ID": 38740,
        "ELEMENT_SET_NO": 999,
        "REV_AT_EPOCH": 4874,
        "BSTAR": 0,
        "MEAN_MOTION_DOT": -4e-08,
        "MEAN_MOTION_DDOT": 0,
        "norad_id": 38740,
        "name": "INTELSAT 20 (IS-20)",
        "group": "intelsat",
        "longitude_deg": NaN,
        "latitude_deg": NaN,
        "alt_km": NaN,
        "orbit_class": "HEO",
        "timestamp": "2025-11-30T04:58:49.601584+00:00"
      },
      "geometry": {
        "type": "Point",
        "coordinates": [
          NaN,
          NaN
        ]
      }
    },
    {
      "type": "Feature",
      "properties": {
        "OBJECT_NAME": "INTELSAT 21 (IS-21)",
        "OBJECT_ID": "2012-045A",
        "EPOCH": "2025-11-29T18:43:56.565984",
        "MEAN_MOTION": 1.00270652,
        "ECCENTRICITY": 0.0001879,
        "INCLINATION": 0.0528,
        "RA_OF_ASC_NODE": 93.0842,
        "ARG_OF_PERICENTER": 153.9263,
        "MEAN_ANOMALY": 44.9113,
        "EPHEMERIS_TYPE": 0,
        "CLASSIFICATION_TYPE": "U",
        "NORAD_CAT_ID": 38749,
        "ELEMENT_SET_NO": 999,
        "REV_AT_EPOCH": 4852,
        "BSTAR": 0,
        "MEAN_MOTION_DOT": -2.64e-06,
        "MEAN_MOTION_DDOT": 0,
        "norad_id": 38749,
        "name": "INTELSAT 21 (IS-21)",
        "group": "intelsat",
        "longitude_deg": NaN,
        "latitude_deg": NaN,
        "alt_km": NaN,
        "orbit_class": "HEO",
        "timestamp": "2025-11-30T04:58:49.601603+00:00"
      },
      "geometry": {
        "type": "Point",
        "coordinates": [
          NaN,
          NaN
        ]
      }
    },
    {
      "type": "Feature",
      "properties": {
        "OBJECT_NAME": "INTELSAT 23 (IS-23)",
        "OBJECT_ID": "2012-057A",
        "EPOCH": "2025-11-29T18:45:26.421984",
        "MEAN_MOTION": 1.00271673,
        "ECCENTRICITY": 0.0001782,
        "INCLINATION": 0.0323,
        "RA_OF_ASC_NODE": 97.3358,
        "ARG_OF_PERICENTER": 109.4589,
        "MEAN_ANOMALY": 90.4977,
        "EPHEMERIS_TYPE": 0,
        "CLASSIFICATION_TYPE": "U",
        "NORAD_CAT_ID": 38867,
        "ELEMENT_SET_NO": 999,
        "REV_AT_EPOCH": 4795,
        "BSTAR": 0,
        "MEAN_MOTION_DOT": -2.63e-06,
        "MEAN_MOTION_DDOT": 0,
        "norad_id": 38867,
        "name": "INTELSAT 23 (IS-23)",
        "group": "intelsat",
        "longitude_deg": NaN,
        "latitude_deg": NaN,
        "alt_km": NaN,
        "orbit_class": "HEO",
        "timestamp": "2025-11-30T04:58:49.601693+00:00"
      },
      "geometry": {
        "type": "Point",
        "coordinates": [
          NaN,
          NaN
        ]
      }
    },
    {
      "type": "Feature",
      "properties": {
        "OBJECT_NAME": "FM-6",
        "OBJECT_ID": "2013-058A",
        "EPOCH": "2025-11-29T16:44:42.563040",
        "MEAN_MOTION": 1.00273071,
        "ECCENTRICITY": 0.0002904,
        "INCLINATION": 0.0051,
        "RA_OF_ASC_NODE": 102.7404,
        "ARG_OF_PERICENTER": 72.9893,
        "MEAN_ANOMALY": 28.1362,
        "EPHEMERIS_TYPE": 0,
        "CLASSIFICATION_TYPE": "U",
        "NORAD_CAT_ID": 39360,
        "ELEMENT_SET_NO": 999,
        "REV_AT_EPOCH": 4407,
        "BSTAR": 0,
        "MEAN_MOTION_DOT": 4e-08,
        "MEAN_MOTION_DDOT": 0,
        "norad_id": 39360,
        "name": "FM-6",
        "group": "intelsat",
        "longitude_deg": NaN,
        "latitude_deg": NaN,
        "alt_km": NaN,
        "orbit_class": "HEO",
        "timestamp": "2025-11-30T04:58:49.602258+00:00"
      },
      "geometry": {
        "type": "Point",
        "coordinates": [
          NaN,
          NaN
        ]
      }
    },
    {
      "type": "Feature",
      "properties": {
        "OBJECT_NAME": "INTELSAT 30 (IS-30)",
        "OBJECT_ID": "2014-062A",
        "EPOCH": "2025-11-29T13:25:16.663296",
        "MEAN_MOTION": 1.00270489,
        "ECCENTRICITY": 0.0001354,
        "INCLINATION": 0.0126,
        "RA_OF_ASC_NODE": 0.7495,
        "ARG_OF_PERICENTER": 87.8829,
        "MEAN_ANOMALY": 86.3489,
        "EPHEMERIS_TYPE": 0,
        "CLASSIFICATION_TYPE": "U",
        "NORAD_CAT_ID": 40271,
        "ELEMENT_SET_NO": 999,
        "REV_AT_EPOCH": 478,
        "BSTAR": 0,
        "MEAN_MOTION_DOT": -1.3e-06,
        "MEAN_MOTION_DDOT": 0,
        "norad_id": 40271,
        "name": "INTELSAT 30 (IS-30)",
        "group": "intelsat",
        "longitude_deg": NaN,
        "latitude_deg": NaN,
        "alt_km": NaN,
        "orbit_class": "HEO",
        "timestamp": "2025-11-30T04:58:49.603074+00:00"
      },
      "geometry": {
        "type": "Point",
        "coordinates": [
          NaN,
          NaN
        ]
      }
    },
    {
      "type": "Feature",
      "properties": {
        "OBJECT_NAME": "DIRECTV 14",
        "OBJECT_ID": "2014-078B",
        "EPOCH": "2025-11-29T13:24:01.783008",
        "MEAN_MOTION": 1.00269749,
        "ECCENTRICITY": 3.28e-05,
        "INCLINATION": 0.0182,
        "RA_OF_ASC_NODE": 306.7735,
        "ARG_OF_PERICENTER": 212.5739,
        "MEAN_ANOMALY": 11.1475,
        "EPHEMERIS_TYPE": 0,
        "CLASSIFICATION_TYPE": "U",
        "NORAD_CAT_ID": 40333,
        "ELEMENT_SET_NO": 999,
        "REV_AT_EPOCH": 4004,
        "BSTAR": 0,
        "MEAN_MOTION_DOT": -1.04e-06,
        "MEAN_MOTION_DDOT": 0,
        "norad_id": 40333,
        "name": "DIRECTV 14",
        "group": "intelsat",
        "longitude_deg": NaN,
        "latitude_deg": NaN,
        "alt_km": NaN,
        "orbit_class": "HEO",
        "timestamp": "2025-11-30T04:58:49.603159+00:00"
      },
      "geometry": {
        "type": "Point",
        "coordinates": [
          NaN,
          NaN
        ]
      }
    },
    {
      "type": "Feature",
      "properties": {
        "OBJECT_NAME": "DIRECTV 15",
        "OBJECT_ID": "2015-026A",
        "EPOCH": "2025-11-29T13:23:01.876704",
        "MEAN_MOTION": 1.00270666,
        "ECCENTRICITY": 2.12e-05,
        "INCLINATION": 0.0333,
        "RA_OF_ASC_NODE": 90.171,
        "ARG_OF_PERICENTER": 97.6139,
        "MEAN_ANOMALY": 338.816,
        "EPHEMERIS_TYPE": 0,
        "CLASSIFICATION_TYPE": "U",
        "NORAD_CAT_ID": 40663,
        "ELEMENT_SET_NO": 999,
        "REV_AT_EPOCH": 3846,
        "BSTAR": 0,
        "MEAN_MOTION_DOT": -8.1e-07,
        "MEAN_MOTION_DDOT": 0,
        "norad_id": 40663,
        "name": "DIRECTV 15",
        "group": "intelsat",
        "longitude_deg": NaN,
        "latitude_deg": NaN,
        "alt_km": NaN,
        "orbit_class": "HEO",
        "timestamp": "2025-11-30T04:58:49.603386+00:00"
      },
      "geometry": {
        "type": "Point",
        "coordinates": [
          NaN,
          NaN
        ]
      }
    }
  ]
}